FLOCK 4S-8              
1 47474U 21006BP  23297.40662610  .00048091  00000+0  86771-3 0  9996
2 47474  97.3583 357.3063 0004631   5.9755 354.1550 15.49597879152651
FLOCK 4S-31             
1 47475U 21006BQ  23297.42695769  .00032294  00000+0  66308-3 0  9992
2 47475  97.3675 358.3045 0003442 344.9200  15.1946 15.45949695152718
FLOCK 4S-34             
1 47477U 21006BS  23297.14860625  .00020314  00000+0  60855-3 0  9999
2 47477  97.3746 355.5812 0004476   3.3994 356.7278 15.34531274152455
FLOCK 4S-9              
1 47478U 21006BT  23297.63300794  .00016435  00000+0  49721-3 0  9998
2 47478  97.3703 355.3021 0004656   9.6676 350.4655 15.34263569152522
FLOCK 4S-39             
1 47490U 21006CF  23297.44991230  .00020124  00000+0  60038-3 0  9996
2 47490  97.3795 356.5861 0006434 350.1097  10.0019 15.34653265152517
FLOCK 4S-4              
1 47491U 21006CG  23297.63629749  .00015825  00000+0  47662-3 0  9991
2 47491  97.3657 355.1862 0005646 343.0934  17.0120 15.34409110152547
FLOCK 4S-17             
1 47492U 21006CH  23297.13644965  .00024173  00000+0  72392-3 0  9998
2 47492  97.3821 356.3855 0006333 349.2258  10.8848 15.34496926152467
FLOCK 4S-3              
1 47494U 21006CK  23297.15807928  .00051434  00000+0  87877-3 0  9996
2 47494  97.3565 357.6356 0005732 342.7572  17.3484 15.51124485152660
FLOCK 4S-27             
1 47495U 21006CL  23297.43295595  .00017150  00000+0  55472-3 0  9992
2 47495  97.3647 354.0212 0007274   6.5496 353.5839 15.32105820152443
FLOCK 4S-18             
1 47496U 21006CM  23297.43841960  .00016134  00000+0  48589-3 0  9998
2 47496  97.3787 356.5029 0007238 349.1459  10.9627 15.34398556152516
FLOCK 4S-2              
1 47498U 21006CP  23297.42721375  .00541594  00000+0  21673-2 0  9993
2 47498  97.3459   3.0173 0007004 291.3365  68.7157 15.85181510153047
FLOCK 4S-19             
1 47500U 21006CR  23297.42839253  .00016662  00000+0  49993-3 0  9991
2 47500  97.3775 356.4771 0006825 346.0484  14.0569 15.34510712152517
FLOCK 4S-28             
1 47514U 21006DE  23297.58967405  .00016477  00000+0  49692-3 0  9994
2 47514  97.3672 355.0064 0005061 357.7310   2.3909 15.34360956153484
FLOCK 4S-5              
1 47515U 21006DF  23297.41974805  .00018688  00000+0  55370-3 0  9995
2 47515  97.3665 354.8259 0006467 355.0218   5.0960 15.34886380152502
FLOCK 4S-16             
1 47516U 21006DG  23297.15670437  .00048012  00000+0  80203-3 0  9998
2 47516  97.3747   0.8098 0007740 351.7192   8.3931 15.51759422153737
FLOCK 4S-6              
1 47518U 21006DJ  23297.43288580  .00017562  00000+0  52217-3 0  9995
2 47518  97.3696 355.0275 0005729   4.1949 355.9341 15.34792896153478
FLOCK 4S-29             
1 47520U 21006DL  23297.12052871  .00063197  00000+0  15060-2 0  9995
2 47520  97.3664 355.1756 0004530 350.9086   9.2078 15.41354137152480
FLOCK 4S-15             
1 47521U 21006DM  23297.14098261  .00052331  00000+0  89581-3 0  9999
2 47521  97.3734 359.1114 0004611   5.2320 354.8979 15.51072212153631
FLOCK 4S-37             
1 47522U 21006DN  23297.39524676  .00019880  00000+0  59717-3 0  9991
2 47522  97.3774 356.1307 0004568   0.9172 359.2078 15.34449510153465
FLOCK 4S-10             
1 47523U 21006DP  23297.43491518  .00015794  00000+0  47036-3 0  9996
2 47523  97.3721 355.2574 0005256   5.2295 354.9002 15.34768142152499
FLOCK 4S-7              
1 47527U 21006DT  23297.41021278  .00017621  00000+0  53072-3 0  9998
2 47527  97.3679 354.8775 0004922   3.3536 356.7739 15.34388918153452
FLOCK 4S-14             
1 47528U 21006DU  23297.15592478  .00021060  00000+0  63256-3 0  9992
2 47528  97.3782 355.8836 0005337   1.9663 358.1600 15.34436589153410
FLOCK 4S-36             
1 47530U 21006DW  23297.14256838  .00019881  00000+0  59667-3 0  9990
2 47530  97.3768 355.7651 0005186   2.8602 357.2670 15.34475202153418
FLOCK 4S-24             
1 47539U 21006DZ  23297.41871136  .00016183  00000+0  48710-3 0  9992
2 47539  97.3706 355.6039 0006482 341.8027  18.2983 15.34420130152516
FLOCK 4S-20             
1 47540U 21006EA  23297.61599823  .00015919  00000+0  47958-3 0  9995
2 47540  97.3769 356.5403 0006085 344.7602  15.3457 15.34396537151619
FLOCK 4S-25             
1 47542U 21006EC  23297.46585655  .00016442  00000+0  49410-3 0  9995
2 47542  97.3682 355.4095 0006817 350.7864   9.3253 15.34464623151596
FLOCK 4S-1              
1 47543U 21006ED  23297.41045337  .00021123  00000+0  60715-3 0  9992
2 47543  97.3689 355.5063 0006477 340.1441  19.9549 15.35816318151594
FLOCK 4S-30             
1 47544U 21006EE  23297.13576265  .00022074  00000+0  66456-3 0  9995
2 47544  97.3689 354.7960 0004580   3.6359 356.4917 15.34356926153418
FLOCK 4S-23             
1 47545U 21006EF  23297.61980737  .00176052  00000+0  16454-2 0  9990
2 47545  97.3598   1.9941 0006199 315.2823  44.7937 15.66702935153929
FLOCK 4S-42             
1 47612U 21006EQ  23297.13167930  .00020146  00000+0  60363-3 0  9995
2 47612  97.3746 355.7015 0006607 359.0340   1.0889 15.34516664152462
FLOCK 4S-48             
1 47617U 21006EJ  23297.41084895  .00018748  00000+0  56020-3 0  9999
2 47617  97.3736 356.0922 0006858 332.6803  27.4079 15.34616479153498
FLOCK 4S-46             
1 47684U 21006EK  23297.44432455  .00017047  00000+0  51283-3 0  9992
2 47684  97.3757 356.0645 0005042  19.6753 340.4684 15.34432205152523
FLOCK 4S-47             
1 47685U 21006EL  23297.43069724  .00019366  00000+0  58095-3 0  9991
2 47685  97.3700 355.3176 0004907   4.8539 355.2751 15.34495248153469
FLOCK 4S-44             
1 47686U 21006EM  23297.15189531  .00018753  00000+0  56130-3 0  9997
2 47686  97.3752 355.9315 0007942 352.5809   7.5316 15.34554039152471
FLOCK 4S-43             
1 47687U 21006EN  23297.42798975  .00017831  00000+0  53357-3 0  9990
2 47687  97.3707 355.3585 0004279  23.3823 336.7614 15.34595665153451
FLOCK 4S-45             
1 47688U 21006EP  23297.63481034  .00016877  00000+0  50775-3 0  9999
2 47688  97.3733 355.7270 0006159 333.2126  26.8798 15.34427812153485
FLOCK 4S-41             
1 47698U 21006ER  23297.13165917  .00022376  00000+0  67121-3 0  9998
2 47698  97.3802 356.1466 0005999 351.1860   8.9276 15.34462731152457
FLOCK 4X-8              
1 50992U 22002J   23297.44402618  .00017074  00000+0  54480-3 0  9995
2 50992  97.4263   6.0694 0008499 135.7403 224.4520 15.32535427 98605
FLOCK 4X-44             
1 50994U 22002L   23297.43449741  .00016842  00000+0  53356-3 0  9997
2 50994  97.4268   6.2247 0008310 136.6741 223.5156 15.32767833 98608
FLOCK 4X-2              
1 50996U 22002N   23297.45746278  .00014906  00000+0  47724-3 0  9997
2 50996  97.4268   6.1362 0008540 137.0698 223.1212 15.32455463 98600
FLOCK 4X-20             
1 50997U 22002P   23297.62947178  .00018238  00000+0  57790-3 0  9995
2 50997  97.4270   6.3486 0008339 134.9574 225.2345 15.32745617 98634
FLOCK 4X-30             
1 51000U 22002S   23297.44489149  .00015589  00000+0  49839-3 0  9991
2 51000  97.4217   5.6764 0008554 127.9576 232.2439 15.32491817 98604
FLOCK 4X-22             
1 51003U 22002V   23297.15643374  .00024042  00000+0  75647-3 0  9994
2 51003  97.4258   5.7783 0007966 138.8189 221.3655 15.32916368 98568
FLOCK 4X-5              
1 51004U 22002W   23297.17456155  .00018082  00000+0  57787-3 0  9998
2 51004  97.4230   5.5180 0009143 130.0492 230.1553 15.32466426 98568
FLOCK 4X-41             
1 51005U 22002X   23297.61639596  .00016034  00000+0  51074-3 0  9998
2 51005  97.4213   5.8538 0008334 125.9475 234.2541 15.32604371 98638
FLOCK 4X-3              
1 51006U 22002Y   23297.14842893  .00022433  00000+0  70847-3 0  9992
2 51006  97.4268   5.9104 0008613 133.9692 226.2262 15.32806581 98569
FLOCK 4X-18             
1 51007U 22002Z   23297.16417915  .00022260  00000+0  69843-3 0  9990
2 51007  97.4219   5.6741 0010426 125.0494 235.1728 15.32998518 98576
FLOCK 4X-37             
1 51009U 22002AB  23297.15715361  .00020728  00000+0  65722-3 0  9996
2 51009  97.4275   5.9638 0008902 135.8869 224.3084 15.32693573 98566
FLOCK 4X-15             
1 51010U 22002AC  23297.44898070  .00026057  00000+0  70728-3 0  9992
2 51010  97.4254   7.1130 0008969 120.5657 239.6474 15.37540969 98663
FLOCK 4X-29             
1 51011U 22002AD  23297.15928916  .00022131  00000+0  69976-3 0  9996
2 51011  97.4252   5.5766 0008636 127.9161 232.2863 15.32770846 98565
FLOCK 4X-12             
1 51015U 22002AH  23297.44321996  .00018129  00000+0  58206-3 0  9993
2 51015  97.4263   6.1024 0009861 133.3149 226.8916 15.32311094 98602
FLOCK 4X-25             
1 51016U 22002AJ  23297.43024455  .00020935  00000+0  64348-3 0  9995
2 51016  97.4223   6.1052 0009028 139.9606 220.2304 15.33681317 98614
FLOCK 4X-1              
1 51017U 22002AK  23297.42849203  .00017360  00000+0  55434-3 0  9995
2 51017  97.4230   5.8263 0009482 132.2470 227.9578 15.32499246 98605
FLOCK 4X-42             
1 51018U 22002AL  23297.49799400  .00015704  00000+0  50370-3 0  9990
2 51018  97.4212   5.7475 0009409 127.7455 232.4641 15.32379063 98618
FLOCK 4X-16             
1 51020U 22002AN  23297.47761796  .00019082  00000+0  60655-3 0  9998
2 51020  97.4227   5.8284 0009026 126.8267 233.3805 15.32627999 98618
FLOCK 4X-38             
1 51023U 22002AR  23297.16234809  .00016404  00000+0  52406-3 0  9997
2 51023  97.4270   5.9094 0009510 135.2470 224.9541 15.32496433 98561
FLOCK 4X-32             
1 51024U 22002AS  23297.43464479  .00019909  00000+0  63924-3 0  9996
2 51024  97.4284   6.2114 0009197 128.5075 231.6993 15.32295365 98603
FLOCK 4X-26             
1 51026U 22002AU  23297.46248382  .00018315  00000+0  57998-3 0  9998
2 51026  97.4240   5.9498 0008949 133.1990 227.0001 15.32759455 98615
FLOCK 4X-43             
1 51027U 22002AV  23297.14814627  .00017433  00000+0  55493-3 0  9993
2 51027  97.4226   5.5624 0009253 129.6604 230.5456 15.32600320 98561
FLOCK 4X-13             
1 51028U 22002AW  23297.15809673  .00023034  00000+0  73576-3 0  9996
2 51028  97.4228   5.5453 0009521 128.6661 231.5434 15.32428112 98568
